[{"OBJECT_NAME":"STARLINK-34386","OBJECT_ID":"2025-236L","EPOCH":"2026-03-09T12:43:26.179104","MEAN_MOTION":15.30204773,"ECCENTRICITY":9.109e-5,"INCLINATION":53.1578,"RA_OF_ASC_NODE":104.3663,"ARG_OF_PERICENTER":105.669,"MEAN_ANOMALY":254.4412,"EPHEMERIS_TYPE":0,"CLASSIFICATION_TYPE":"U","NORAD_CAT_ID":66096,"ELEMENT_SET_NO":999,"REV_AT_EPOCH":2292,"BSTAR":0.00057410472,"MEAN_MOTION_DOT":0.00016685,"MEAN_MOTION_DDOT":0},{"OBJECT_NAME":"JD 2","OBJECT_ID":"1984-012D","EPOCH":"2026-03-09T22:15:36.882144","MEAN_MOTION":13.7538851,"ECCENTRICITY":0.07532678,"INCLINATION":63.3059,"RA_OF_ASC_NODE":308.0564,"ARG_OF_PERICENTER":126.7288,"MEAN_ANOMALY":240.5384,"EPHEMERIS_TYPE":0,"CLASSIFICATION_TYPE":"U","NORAD_CAT_ID":14729,"ELEMENT_SET_NO":999,"REV_AT_EPOCH":33025,"BSTAR":0.00052355644,"MEAN_MOTION_DOT":4.484e-5,"MEAN_MOTION_DDOT":0}]
